OBJECT_NAME,OBJECT_ID,EPOCH,MEAN_MOTION,ECCENTRICITY,INCLINATION,RA_OF_ASC_NODE,ARG_OF_PERICENTER,MEAN_ANOMALY,EPHEMERIS_TYPE,CLASSIFICATION_TYPE,NORAD_CAT_ID,ELEMENT_SET_NO,REV_AT_EPOCH,BSTAR,MEAN_MOTION_DOT,MEAN_MOTION_DDOT
KOREASAT 6,2010-070B,2026-07-21T05:17:13.049952,1.00272931,.00028592,0.0320,253.4848,234.5206,50.1701,0,U,37265,999,5711,0,-.11E-5,0
BEIDOU-2 IGSO-3,2011-013A,2026-07-20T11:54:48.647232,1.00259464,.00357915,62.4540,39.8354,183.4623,359.8458,0,U,37384,999,5599,0,-.175E-5,0
INTELSAT 28 (IS-28),2011-016A,2026-07-21T06:05:12.818976,1.00271449,.0003946,1.8921,82.2114,42.7272,233.6706,0,U,37392,999,5362,0,-.225E-5,0
YAHSAT 1A,2011-016B,2026-07-21T06:28:48.057888,1.00271652,.00032444,0.0182,73.3952,41.3814,333.9482,0,U,37393,999,4275,0,.102E-5,0
SBIRS GEO-1 (USA 230),2011-019A,2026-07-21T06:28:48.057888,1.00272075,.00018395,4.6092,53.0893,63.2376,331.7095,0,U,37481,999,5574,0,.98E-6,0
TELSTAR 14R,2011-021A,2026-07-21T05:44:38.702112,0.98982155,.00080233,0.0988,85.0095,293.9520,274.6954,0,U,37602,999,5617,0,-.13E-6,0
GSAT-8,2011-022A,2026-07-21T04:47:15.923040,1.00271458,.0002508,2.2168,81.4104,151.8692,192.5738,0,U,37605,999,5355,0,.84E-6,0
ST-2,2011-022B,2026-07-21T02:14:38.565024,1.00267157,.00015224,0.0083,16.8362,120.0475,283.6455,0,U,37606,999,5561,0,-.21E-5,0
ZHONGXING-10,2011-026A,2026-07-21T15:26:57.053760,1.00273506,.0003628,1.1338,83.8113,22.8253,150.0143,0,U,37677,999,5534,0,-.188E-5,0
SES-3,2011-035A,2026-07-21T06:00:38.849760,1.00271996,.00022105,1.4125,82.7149,36.7631,166.7062,0,U,37748,999,5493,0,-.102E-5,0
KAZSAT-2,2011-035B,2026-07-21T02:14:38.565024,1.00272447,.00021466,0.0271,112.5021,57.5785,248.9560,0,U,37749,999,5373,0,-.197E-5,0
BEIDOU-2 IGSO-4,2011-038A,2026-07-20T22:56:02.094720,1.00278607,.01601312,54.6049,165.3724,231.4816,340.2900,0,U,37763,999,5498,0,-.24E-6,0
ASTRA 1N,2011-041A,2026-07-21T06:19:41.431872,1.00273013,.0006013,0.0654,22.2995,94.6034,296.2194,0,U,37775,999,4486,0,.121E-5,0
BSAT-3C (JCSAT-110R),2011-041B,2026-07-21T06:45:38.943072,1.00271469,.00003073,0.0256,325.0114,209.7097,335.6865,0,U,37776,999,5081,0,-.349E-5,0
PAKSAT-1R,2011-042A,2026-07-21T04:42:23.889312,1.00272291,.00032051,0.7750,84.2816,355.5449,327.6823,0,U,37779,999,5481,0,.154E-5,0
SES-2,2011-049A,2026-07-21T05:44:38.702112,1.00271547,.00028865,0.1431,90.7691,26.0627,181.3218,0,U,37809,999,5430,0,-.195E-5,0
ARABSAT-5C,2011-049B,2026-07-21T06:19:56.407584,1.00274702,.00037555,0.0479,358.0669,142.1789,273.7800,0,U,37810,999,5437,0,.125E-5,0
EUTELSAT 7 WEST A,2011-051A,2026-07-21T06:12:12.149280,1.00272050,.00049021,0.0606,2.6085,127.1347,254.9943,0,U,37816,999,5421,0,-.6E-6,0
QUETZSAT 1,2011-054A,2026-07-21T06:20:09.348576,1.00271521,.00029102,0.0384,278.3445,206.0391,192.6789,0,U,37826,999,5021,0,-.241E-5,0
INTELSAT 18 (IS-18),2011-056A,2026-07-21T03:40:14.107584,1.00271265,.00019472,0.0199,296.6224,188.9185,48.4215,0,U,37834,999,5415,0,.53E-6,0
EUTELSAT 16A,2011-057A,2026-07-21T06:18:49.014720,1.00270740,.00055134,0.0473,35.9074,85.1679,288.6476,0,U,37836,999,767,0,.105E-5,0
VIASAT-1,2011-059A,2026-07-21T06:08:38.557248,1.00269696,.00026555,0.0193,50.4807,63.7056,161.8926,0,U,37843,999,4766,0,0,0
ASIASAT 7,2011-069A,2026-07-21T14:23:34.670112,1.00268487,.0001477,0.0557,259.4398,194.0592,167.2347,0,U,37933,999,4520,0,-.331E-5,0
BEIDOU-2 IGSO-5,2011-073A,2026-07-02T17:30:18.330912,1.00270596,.01145273,47.6496,271.3544,222.0502,141.5350,0,U,37948,999,5329,0,-.128E-5,0
LUCH-5A,2011-074B,2026-07-20T20:46:04.601856,1.00274410,.00028241,8.8372,73.3107,60.5669,283.3004,0,U,37951,999,5338,0,-.55E-6,0
NIGCOMSAT 1R,2011-077A,2026-07-21T06:26:25.785600,1.00274430,.00023131,0.0392,107.9919,244.4284,85.7170,0,U,38014,999,5329,0,.146E-5,0
WGS F4 (USA 233),2012-003A,2026-07-21T03:14:09.108960,1.00268550,.00002119,0.0199,57.3818,269.9800,108.4809,0,U,38070,999,4448,0,-.214E-5,0
SES-4,2012-007A,2026-07-21T06:07:57.556128,1.00270314,.00024127,0.0220,28.2190,95.3330,245.4608,0,U,38087,999,5256,0,-.167E-5,0
BEIDOU-2 G5,2012-008A,2026-07-21T03:55:38.609184,1.00272519,.00071958,3.6567,69.4856,270.8620,76.1459,0,U,38091,999,5270,0,.55E-6,0
MUOS-1,2012-009A,2026-07-21T05:52:38.666208,1.00271410,.0056421,5.5434,47.1036,3.7080,236.4038,0,U,38093,999,5278,0,-.13E-5,0
INTELSAT 22 (IS-22),2012-011A,2026-07-21T03:09:32.051808,1.00271246,.00019986,0.0037,353.4224,148.1856,276.7696,0,U,38098,999,752,0,-.58E-6,0
APSTAR-7,2012-013A,2026-07-21T15:09:20.845728,1.00271785,.0003323,0.0370,96.0349,32.3509,114.8374,0,U,38107,999,5215,0,-.1E-5,0
YAHSAT 1B,2012-016A,2026-07-21T06:27:48.154176,1.00271347,.0002664,0.0882,89.1141,26.2053,328.2667,0,U,38245,999,4594,0,.127E-5,0
AEHF-2 (USA 235),2012-019A,2026-07-20T22:11:38.867424,1.00271821,.00021469,6.7258,57.2284,66.9664,130.9260,0,U,38254,999,732,0,-.139E-5,0
JCSAT-13,2012-023A,2026-07-21T06:49:38.559648,1.00272679,.00023454,0.0143,8.0335,115.8629,41.5676,0,U,38331,999,5188,0,-.355E-5,0
VINASAT-2,2012-023B,2026-07-21T06:51:53.343648,1.00271657,.00023966,0.0138,2.3850,113.5677,57.9108,0,U,38332,999,4700,0,-.328E-5,0
NIMIQ 6,2012-026A,2026-07-21T05:44:38.702112,1.00271327,.00029454,0.0567,263.8846,218.3345,171.8393,0,U,38342,999,5075,0,-.173E-5,0
ZHONGXING-2A,2012-028A,2026-07-21T16:58:09.818112,1.00274777,.0001602,1.5415,83.4456,28.8418,179.9498,0,U,38352,999,5164,0,-.292E-5,0
INTELSAT 19 (IS-19),2012-030A,2026-07-21T05:18:57.883392,1.00272900,.00031265,0.0173,41.9235,77.3519,65.4386,0,U,38356,999,5079,0,-.56E-6,0
ECHOSTAR 17,2012-035A,2026-07-21T06:00:38.849760,1.00272811,.00021288,0.0196,60.0393,57.5425,164.4854,0,U,38551,999,5140,0,-.75E-6,0
METEOSAT-10 (MSG-3),2012-035B,2026-07-21T06:14:19.445856,1.00272760,.00014406,4.7503,60.8516,18.6196,313.1782,0,U,38552,999,5119,0,-.9E-7,0
SES-5,2012-036A,2026-07-21T06:15:41.815296,1.00273402,.00021425,0.0455,317.5834,161.0751,279.2640,0,U,38652,999,4479,0,.35E-6,0
INTELSAT 20 (IS-20),2012-043A,2026-07-21T03:55:38.609184,1.00270459,.00012819,0.0142,75.7731,108.8063,241.7581,0,U,38740,999,5108,0,-.23E-6,0
HYLAS 2,2012-043B,2026-07-20T19:37:38.002080,1.00271719,.00025277,2.5120,80.6624,56.7589,22.9978,0,U,38741,999,5111,0,-.259E-5,0
INTELSAT 21 (IS-21),2012-045A,2026-07-21T05:57:43.537248,1.00271356,.00018219,0.0397,251.3013,238.5811,200.5629,0,U,38749,999,5086,0,-.284E-5,0
ASTRA 2F,2012-051A,2026-07-21T06:22:18.680736,1.00272988,.00032087,0.0733,253.6198,287.3960,241.7390,0,U,38778,999,4147,0,.151E-5,0
GSAT-10,2012-051B,2026-07-21T03:12:39.252960,1.00272712,.00076122,0.0756,263.8024,191.9959,334.2725,0,U,38779,999,5043,0,-.164E-5,0
INTELSAT 23 (IS-23),2012-057A,2026-07-21T00:13:38.660736,1.00276117,.0000485,0.0186,26.7548,105.7947,116.6357,0,U,38867,999,5029,0,-.284E-5,0
BEIDOU-2 G6,2012-059A,2026-07-21T00:12:39.456000,1.00273095,.00089087,4.5052,73.1585,328.3682,344.4330,0,U,38953,999,5024,0,-.178E-5,0
LUCH-5B,2012-061A,2026-07-21T09:34:44.254848,1.00271122,.0003893,10.5558,49.5378,142.5071,234.4988,0,U,38977,999,4995,0,-.143E-5,0
YAMAL 300K,2012-061B,2026-07-21T03:41:06.523872,1.00270267,.00000647,0.0095,232.5410,194.3811,110.2170,0,U,38978,999,4997,0,.71E-6,0
STAR ONE C3,2012-062A,2026-07-21T04:55:44.360256,1.00272206,.0002395,0.0132,74.6452,51.2105,172.0635,0,U,38991,999,5010,0,-.248E-5,0
EUTELSAT 21B,2012-062B,2026-07-21T06:20:26.359872,1.00273875,.00032414,0.0671,347.4652,140.4481,287.7980,0,U,38992,999,5016,0,.131E-5,0
ECHOSTAR 16,2012-065A,2026-07-21T05:56:43.632672,1.00271167,.00020546,0.0163,58.2838,57.0957,211.3112,0,U,39008,999,4998,0,-.281E-5,0
ZHONGXING-12,2012-067A,2026-07-21T15:12:28.046880,1.00274268,.0002898,0.0165,114.2292,1.2744,139.4959,0,U,39017,999,4985,0,-.205E-5,0
EUTELSAT 70B,2012-069A,2026-07-21T04:51:45.491904,1.00273728,.00035269,0.0641,343.3940,139.3872,319.6246,0,U,39020,999,4985,0,-.43E-6,0
YAMAL 402,2012-070A,2026-07-20T04:49:52.300992,1.00272347,.00037775,1.3474,83.7507,28.3484,313.2334,0,U,39022,999,4972,0,.83E-6,0
SKYNET 5D,2012-075A,2026-07-21T06:28:48.057888,1.00273312,.00036894,0.0689,10.6553,116.3931,321.9286,0,U,39034,999,4950,0,.1E-5,0
MEXSAT 3,2012-075B,2026-07-21T06:08:38.557248,1.00271642,.00012289,0.0165,72.0874,41.5162,162.7654,0,U,39035,999,739,0,-.25E-6,0
TDRS 11,2013-004A,2026-07-21T06:32:38.759712,1.00265306,.00052716,3.5705,31.7842,30.3039,160.8921,0,U,39070,999,4703,0,.78E-6,0
AMAZONAS 3,2013-006A,2026-07-21T05:56:51.120960,1.00270417,.00035187,0.0600,241.0023,271.4307,174.7802,0,U,39078,999,4525,0,-.281E-5,0
AZERSPACE 1,2013-006B,2026-07-21T04:44:46.161600,1.00272115,.0002155,0.0408,255.6590,250.9213,269.5508,0,U,39079,999,4914,0,.134E-5,0
SBIRS GEO-2 (USA 241),2013-011A,2026-07-21T00:13:38.660736,1.00271072,.00018248,4.5599,52.5012,67.7459,132.1401,0,U,39120,999,4887,0,-.289E-5,0
EUTELSAT 117 WEST A,2013-012A,2026-07-21T06:08:38.557248,1.00271755,.00029218,0.0357,284.6643,193.6580,156.0427,0,U,39122,999,4877,0,-.12E-6,0
ANIK G1,2013-014A,2026-07-21T06:00:38.849760,1.00272369,.0001946,0.0102,8.4327,117.4028,156.0344,0,U,39127,999,4859,0,-.73E-6,0
ZHONGXING-11,2013-020A,2026-07-21T03:16:53.846112,1.00273253,.00023176,0.0418,273.3525,165.8830,6.7861,0,U,39157,999,4824,0,-.29E-5,0
EUTELSAT 7B,2013-022A,2026-07-21T06:16:11.766720,1.00271701,.00032154,0.0655,350.6711,60.5888,348.7938,0,U,39163,999,4828,0,.49E-6,0
WGS F5 (USA 243),2013-024A,2026-07-21T05:59:13.394112,1.00269327,.00002498,0.0210,59.9378,81.2366,195.1530,0,U,39168,999,4751,0,0,0
SES-6,2013-026A,2026-07-21T06:02:43.059264,1.00271636,.00027414,0.0159,16.6954,83.6774,248.8270,0,U,39172,999,4806,0,-.26E-5,0
IRNSS-1A,2013-034A,2026-07-21T04:47:08.434752,1.00271492,.00186752,35.7933,63.3827,179.4943,182.8995,0,U,39199,999,4771,0,.51E-6,0
MUOS-2,2013-036A,2026-07-21T05:20:35.226816,1.00273408,.00532,5.0611,45.5543,176.4089,329.1450,0,U,39206,999,4753,0,-.15E-6,0
ALPHASAT,2013-038A,2026-07-21T06:21:18.776160,1.00273411,.00026566,2.9993,1.1034,138.4362,279.6904,0,U,39215,999,4436,0,.134E-5,0
